ONEWEB-0531             
1 54146U 22138AK  24244.39081486  .00000123  00000+0  27074-3 0  9999
2 54146  87.9210  44.6800 0002852  96.2719 263.8739 13.20769756 93749
ONEWEB-0535             
1 54147U 22138AL  24244.09802579  .00000113  00000+0  24917-3 0  9993
2 54147  87.9086  75.2736 0002070  87.5947 272.5422 13.19723150 91309
ONEWEB-0536             
1 54148U 22138AM  24244.37816490  .00000117  00000+0  25516-3 0  9992
2 54148  87.9205  44.7307 0002787  82.8670 277.2781 13.20773827 93731
ONEWEB-0527             
1 54642U 22166A   24243.86757403 -.00000039  00000+0 -12472-3 0  9995
2 54642  87.9342  14.4632 0001927 100.4458 259.6893 13.21826539 84966
ONEWEB-0528             
1 54643U 22166B   24244.10095985 -.00003517  00000+0 -85491-2 0  9998
2 54643  87.9343  14.4061 0001581   4.2715 355.8432 13.21842166 85454
ONEWEB-0539             
1 54644U 22166C   24244.44002211  .00000108  00000+0  23097-3 0  9992
2 54644  87.9346  14.3424 0001652  94.4267 265.7055 13.21827622 85496
ONEWEB-0540             
1 54645U 22166D   24243.90464245 -.00000017  00000+0 -72899-4 0  9998
2 54645  87.9342  14.4627 0001588  91.6773 268.4543 13.21825186 85437
ONEWEB-0542             
1 54646U 22166E   24243.91962115  .00000035  00000+0  53257-4 0  9994
2 54646  87.9341  14.4446 0001814  82.6373 277.4967 13.21823471 84977
